[{"OBJECT_NAME":"OBJECT E","OBJECT_ID":"2024-092E","EPOCH":"2026-03-09T21:25:47.709120","MEAN_MOTION":15.32997986,"ECCENTRICITY":0.0008531,"INCLINATION":97.642,"RA_OF_ASC_NODE":198.2099,"ARG_OF_PERICENTER":142.2606,"MEAN_ANOMALY":217.9236,"EPHEMERIS_TYPE":0,"CLASSIFICATION_TYPE":"U","NORAD_CAT_ID":59777,"ELEMENT_SET_NO":999,"REV_AT_EPOCH":10051,"BSTAR":0.00078641119,"MEAN_MOTION_DOT":0.00025066,"MEAN_MOTION_DDOT":0},{"OBJECT_NAME":"STARLINK-35518","OBJECT_ID":"2025-243X","EPOCH":"2026-03-09T21:20:37.354272","MEAN_MOTION":15.30210079,"ECCENTRICITY":7.045e-5,"INCLINATION":53.1593,"RA_OF_ASC_NODE":244.3763,"ARG_OF_PERICENTER":76.0193,"MEAN_ANOMALY":284.0886,"EPHEMERIS_TYPE":0,"CLASSIFICATION_TYPE":"U","NORAD_CAT_ID":66197,"ELEMENT_SET_NO":999,"REV_AT_EPOCH":2068,"BSTAR":0.001093018,"MEAN_MOTION_DOT":0.00032163,"MEAN_MOTION_DDOT":0}]
